{"type":"FeatureCollection","source":"geoBoundaries gbOpen ADM2 (CC-BY 4.0)","source_url":"https://www.geoboundaries.org/","features":[{"type":"Feature","properties":{"code":"AS-DHE","name":"Dhemaji","state":"Assam","source":"geoBoundaries gbOpen ADM2 (CC-BY 4.0)"},"geometry":{"type":"Polygon","coordinates":[[[95.468,27.862],[95.384,27.837],[95.317,27.867],[94.866,27.742],[94.84,27.7],[94.46,27.554],[94.432,27.6],[94.368,27.573],[94.277,27.59],[94.253,27.638],[94.212,27.608],[94.307,27.412],[94.299,27.387],[94.247,27.39],[94.304,27.32],[94.392,27.359],[94.449,27.313],[94.514,27.353],[94.515,27.242],[94.543,27.223],[94.613,27.329],[94.665,27.349],[94.692,27.419],[94.745,27.435],[94.895,27.584],[95.222,27.649],[95.468,27.862]]]}},{"type":"Feature","properties":{"code":"AS-BAR","name":"Barpeta","state":"Assam","source":"geoBoundaries gbOpen ADM2 (CC-BY 4.0)"},"geometry":{"type":"Polygon","coordinates":[[[90.938,26.094],[91.093,26.164],[91.241,26.181],[91.227,26.262],[91.264,26.368],[91.223,26.382],[91.255,26.418],[91.234,26.424],[91.268,26.487],[91.253,26.535],[91.296,26.569],[91.242,26.588],[91.267,26.62],[91.2,26.601],[91.139,26.66],[91.134,26.553],[91.015,26.565],[90.984,26.513],[90.989,26.569],[90.92,26.547],[90.931,26.61],[90.899,26.632],[90.819,26.568],[90.848,26.561],[90.854,26.502],[90.809,26.5],[90.812,26.439],[90.861,26.434],[90.86,26.362],[90.821,26.366],[90.802,26.306],[90.762,26.313],[90.722,26.284],[90.735,26.259],[90.655,26.237],[90.721,26.132],[90.861,26.113],[90.894,26.053],[90.938,26.094]]]}},{"type":"Feature","properties":{"code":"AS-MOR","name":"Morigaon","state":"Assam","source":"geoBoundaries gbOpen ADM2 (CC-BY 4.0)"},"geometry":{"type":"Polygon","coordinates":[[[92.441,26.485],[92.164,26.417],[92.044,26.276],[91.955,26.254],[91.961,26.228],[92.169,26.164],[92.181,26.067],[92.314,26.076],[92.401,26.139],[92.437,26.243],[92.545,26.275],[92.539,26.324],[92.583,26.373],[92.441,26.405],[92.441,26.485]]]}},{"type":"Feature","properties":{"code":"AS-KAM","name":"Kamrup Metropolitan","state":"Assam","source":"geoBoundaries gbOpen ADM2 (CC-BY 4.0)"},"geometry":{"type":"Polygon","coordinates":[[[91.955,26.254],[91.731,26.182],[91.644,26.189],[91.638,26.128],[91.678,26.114],[91.595,26.13],[91.574,26.044],[91.522,26.048],[91.487,25.892],[91.533,25.923],[91.503,25.92],[91.577,26.032],[91.634,26.022],[91.613,25.939],[91.671,25.905],[91.721,25.953],[91.733,26.058],[91.821,26.118],[91.877,26.097],[91.872,26.051],[91.923,25.998],[92.179,26.078],[92.169,26.164],[92.047,26.214],[91.999,26.205],[91.955,26.254]]]}},{"type":"Feature","properties":{"code":"BR-DAR","name":"Darbhanga","state":"Bihar","source":"geoBoundaries gbOpen ADM2 (CC-BY 4.0)"},"geometry":{"type":"Polygon","coordinates":[[[85.705,26.092],[85.72,26.046],[85.834,26.047],[85.853,25.994],[85.918,25.96],[86.026,25.947],[86.15,25.885],[86.218,25.897],[86.215,25.787],[86.41,25.735],[86.388,25.817],[86.305,25.869],[86.353,25.94],[86.386,25.929],[86.361,25.962],[86.368,26.031],[86.392,26.035],[86.331,26.092],[86.325,26.161],[86.245,26.195],[86.252,26.224],[86.149,26.236],[86.11,26.192],[86.075,26.213],[86.029,26.194],[86.045,26.235],[86.001,26.264],[85.992,26.322],[85.891,26.276],[85.833,26.282],[85.838,26.386],[85.761,26.399],[85.768,26.425],[85.73,26.44],[85.699,26.398],[85.725,26.353],[85.687,26.35],[85.742,26.339],[85.701,26.321],[85.694,26.245],[85.745,26.156],[85.705,26.092]]]}},{"type":"Feature","properties":{"code":"BR-SIT","name":"Sitamarhi","state":"Bihar","source":"geoBoundaries gbOpen ADM2 (CC-BY 4.0)"},"geometry":{"type":"Polygon","coordinates":[[[85.701,26.321],[85.742,26.339],[85.687,26.349],[85.725,26.353],[85.702,26.413],[85.73,26.44],[85.768,26.425],[85.755,26.472],[85.805,26.459],[85.762,26.497],[85.826,26.536],[85.82,26.603],[85.724,26.674],[85.721,26.821],[85.623,26.874],[85.455,26.782],[85.408,26.791],[85.335,26.742],[85.269,26.754],[85.29,26.683],[85.26,26.64],[85.379,26.636],[85.377,26.567],[85.413,26.554],[85.383,26.531],[85.426,26.483],[85.378,26.492],[85.39,26.454],[85.351,26.427],[85.388,26.405],[85.376,26.315],[85.416,26.316],[85.39,26.283],[85.436,26.282],[85.514,26.387],[85.589,26.395],[85.632,26.327],[85.701,26.321]]]}},{"type":"Feature","properties":{"code":"BR-MUZ","name":"Muzaffarpur","state":"Bihar","source":"geoBoundaries gbOpen ADM2 (CC-BY 4.0)"},"geometry":{"type":"Polygon","coordinates":[[[85.705,26.092],[85.745,26.156],[85.694,26.245],[85.715,26.306],[85.632,26.327],[85.589,26.395],[85.51,26.385],[85.426,26.278],[85.39,26.283],[85.416,26.316],[85.376,26.315],[85.369,26.345],[85.336,26.326],[85.223,26.369],[85.207,26.346],[85.271,26.332],[85.25,26.296],[85.191,26.285],[85.172,26.334],[85.116,26.306],[85.029,26.331],[84.885,26.301],[84.843,26.244],[84.876,26.222],[84.884,26.14],[84.934,26.103],[84.918,26.04],[84.955,25.996],[84.985,26.015],[85.073,25.978],[85.103,26.006],[85.259,26.022],[85.285,26.008],[85.28,25.958],[85.462,25.946],[85.502,25.918],[85.629,25.94],[85.623,26.017],[85.705,26.092]]]}},{"type":"Feature","properties":{"code":"KL-WAY","name":"Wayanad","state":"Kerala","source":"geoBoundaries gbOpen ADM2 (CC-BY 4.0)"},"geometry":{"type":"Polygon","coordinates":[[[75.774,11.803],[75.793,11.744],[75.917,11.69],[75.911,11.601],[76.039,11.503],[76.079,11.522],[76.145,11.452],[76.251,11.532],[76.234,11.572],[76.268,11.595],[76.306,11.572],[76.444,11.646],[76.256,11.759],[76.208,11.862],[76.115,11.859],[76.115,11.978],[76.005,11.931],[75.931,11.935],[75.928,11.843],[75.811,11.857],[75.774,11.803]]]}},{"type":"Feature","properties":{"code":"KL-IDU","name":"Idukki","state":"Kerala","source":"geoBoundaries gbOpen ADM2 (CC-BY 4.0)"},"geometry":{"type":"Polygon","coordinates":[[[77.285,9.273],[77.351,9.442],[77.413,9.507],[77.367,9.537],[77.358,9.606],[77.341,9.574],[77.321,9.604],[77.271,9.575],[77.168,9.616],[77.25,9.799],[77.22,9.905],[77.277,9.974],[77.203,10.106],[77.275,10.13],[77.295,10.218],[77.261,10.231],[77.236,10.351],[77.177,10.356],[77.048,10.282],[77.062,10.236],[77.015,10.222],[77.087,10.175],[76.923,10.176],[76.867,10.074],[76.771,10.066],[76.833,10.013],[76.785,10.036],[76.768,9.981],[76.718,9.987],[76.704,9.91],[76.631,9.913],[76.63,9.85],[76.781,9.808],[76.89,9.717],[76.937,9.621],[76.897,9.634],[76.888,9.54],[76.952,9.49],[76.976,9.502],[77.011,9.409],[77.068,9.417],[77.063,9.448],[77.106,9.469],[77.208,9.45],[77.25,9.377],[77.226,9.296],[77.285,9.273]]]}},{"type":"Feature","properties":{"code":"UK-RUD","name":"Rudraprayag","state":"Uttarakhand","source":"geoBoundaries gbOpen ADM2 (CC-BY 4.0)"},"geometry":{"type":"Polygon","coordinates":[[[79.033,30.806],[79.021,30.746],[78.927,30.712],[78.871,30.509],[78.824,30.481],[78.853,30.453],[78.818,30.398],[78.837,30.354],[78.876,30.35],[78.86,30.297],[78.912,30.229],[78.907,30.165],[79.092,30.213],[79.098,30.378],[79.164,30.38],[79.168,30.443],[79.248,30.555],[79.297,30.557],[79.358,30.628],[79.297,30.719],[79.144,30.744],[79.033,30.806]]]}},{"type":"Feature","properties":{"code":"UK-CHA","name":"Chamoli","state":"Uttarakhand","source":"geoBoundaries gbOpen ADM2 (CC-BY 4.0)"},"geometry":{"type":"Polygon","coordinates":[[[79.474,29.976],[79.486,30.019],[79.55,29.992],[79.814,30.018],[79.83,30.054],[79.764,30.128],[79.823,30.221],[79.799,30.275],[79.979,30.295],[80.035,30.389],[79.998,30.534],[80.045,30.595],[79.981,30.706],[80.103,30.722],[80.102,30.79],[80.011,30.871],[79.932,30.878],[79.868,30.968],[79.755,31.003],[79.604,30.93],[79.508,31.029],[79.429,31.02],[79.42,31.081],[79.311,31.01],[79.318,30.961],[79.27,30.955],[79.278,30.878],[79.226,30.814],[79.291,30.746],[79.305,30.675],[79.355,30.644],[79.35,30.603],[79.248,30.555],[79.168,30.443],[79.164,30.38],[79.098,30.378],[79.077,30.217],[79.141,30.163],[79.136,30.115],[79.196,30.08],[79.191,30.034],[79.284,29.922],[79.327,29.926],[79.33,29.968],[79.376,29.923],[79.474,29.976]]]}},{"type":"Feature","properties":{"code":"HP-KUL","name":"Kullu","state":"Himachal Pradesh","source":"geoBoundaries gbOpen ADM2 (CC-BY 4.0)"},"geometry":{"type":"Polygon","coordinates":[[[77.867,31.783],[77.84,31.848],[77.87,31.882],[77.785,31.915],[77.77,31.943],[77.802,31.985],[77.745,32.091],[77.546,32.222],[77.526,32.2],[77.475,32.228],[77.429,32.194],[77.371,32.222],[77.327,32.321],[77.197,32.401],[77.075,32.397],[77.031,32.306],[77.053,32.226],[76.996,32.186],[76.989,32.111],[76.947,32.112],[76.945,32.044],[77.06,31.835],[77.18,31.841],[77.218,31.721],[77.307,31.661],[77.303,31.557],[77.387,31.361],[77.526,31.351],[77.555,31.386],[77.631,31.391],[77.629,31.446],[77.709,31.501],[77.657,31.578],[77.649,31.66],[77.686,31.703],[77.751,31.714],[77.764,31.762],[77.85,31.754],[77.867,31.783]]]}},{"type":"Feature","properties":{"code":"HP-MAN","name":"Mandi","state":"Himachal Pradesh","source":"geoBoundaries gbOpen ADM2 (CC-BY 4.0)"},"geometry":{"type":"Polygon","coordinates":[[[77.004,31.298],[77.14,31.228],[77.337,31.298],[77.394,31.372],[77.327,31.47],[77.307,31.661],[77.218,31.721],[77.18,31.841],[77.06,31.835],[76.938,32.066],[76.818,32.048],[76.791,32.074],[76.731,32.029],[76.68,32.048],[76.695,31.932],[76.679,31.873],[76.637,31.868],[76.626,31.775],[76.728,31.665],[76.738,31.522],[76.791,31.503],[76.805,31.422],[76.881,31.412],[76.877,31.353],[76.922,31.367],[77.004,31.298]]]}},{"type":"Feature","properties":{"code":"OD-PUR","name":"Puri","state":"Odisha","source":"geoBoundaries gbOpen ADM2 (CC-BY 4.0)"},"geometry":{"type":"Polygon","coordinates":[[[86.082,20.107],[85.885,20.111],[85.901,20.148],[85.853,20.194],[85.722,20.13],[85.689,20.15],[85.68,20.072],[85.633,20.101],[85.618,19.992],[85.617,20.019],[85.594,19.996],[85.573,20.024],[85.565,19.95],[85.531,19.978],[85.502,19.946],[85.567,19.917],[85.564,19.855],[85.536,19.892],[85.407,19.886],[85.191,19.712],[85.177,19.558],[85.137,19.522],[85.159,19.484],[85.174,19.468],[85.67,19.74],[86.375,19.958],[86.278,20.058],[86.122,20.043],[86.082,20.069],[86.082,20.107]]]}},{"type":"Feature","properties":{"code":"OD-KEN","name":"Kendrapara","state":"Odisha","source":"geoBoundaries gbOpen ADM2 (CC-BY 4.0)"},"geometry":{"type":"Polygon","coordinates":[[[86.716,20.301],[86.782,20.338],[86.776,20.39],[86.712,20.396],[86.754,20.518],[87.056,20.711],[86.965,20.689],[86.903,20.71],[87.006,20.714],[86.993,20.77],[86.863,20.775],[86.813,20.73],[86.629,20.799],[86.544,20.755],[86.544,20.694],[86.47,20.688],[86.375,20.595],[86.323,20.631],[86.323,20.587],[86.26,20.563],[86.281,20.398],[86.255,20.367],[86.398,20.369],[86.551,20.328],[86.612,20.345],[86.716,20.301]]]}},{"type":"Feature","properties":{"code":"OD-GAN","name":"Ganjam","state":"Odisha","source":"geoBoundaries gbOpen ADM2 (CC-BY 4.0)"},"geometry":{"type":"Polygon","coordinates":[[[84.768,19.081],[84.862,19.216],[85.174,19.468],[85.137,19.522],[85.177,19.558],[85.184,19.676],[85.077,19.792],[85.009,19.803],[84.936,19.873],[84.902,19.994],[84.863,20.001],[84.799,20.095],[84.835,20.218],[84.697,20.282],[84.564,20.141],[84.486,20.143],[84.435,20.203],[84.415,20.054],[84.356,20.037],[84.324,19.988],[84.465,19.953],[84.451,19.836],[84.383,19.842],[84.308,19.906],[84.185,19.86],[84.202,19.835],[84.168,19.804],[84.234,19.785],[84.19,19.704],[84.247,19.643],[84.227,19.626],[84.253,19.501],[84.305,19.496],[84.324,19.545],[84.372,19.54],[84.407,19.446],[84.382,19.382],[84.441,19.363],[84.395,19.208],[84.418,19.143],[84.377,19.141],[84.358,19.054],[84.403,19.104],[84.372,18.973],[84.416,18.971],[84.412,18.939],[84.444,18.975],[84.422,19.023],[84.479,18.991],[84.573,19.075],[84.595,19.023],[84.62,19.064],[84.661,19.062],[84.599,19.133],[84.668,19.131],[84.672,19.166],[84.712,19.158],[84.704,19.118],[84.768,19.081]]]}},{"type":"Feature","properties":{"code":"OD-BAL","name":"Balasore","state":"Odisha","source":"geoBoundaries gbOpen ADM2 (CC-BY 4.0)"},"geometry":{"type":"Polygon","coordinates":[[[87.443,21.77],[87.275,21.809],[87.238,21.96],[87.171,21.978],[87.162,21.936],[87.093,21.903],[87.105,21.857],[87.176,21.814],[87.159,21.769],[87.105,21.784],[87.122,21.755],[87.072,21.707],[87.027,21.741],[87.054,21.684],[86.989,21.667],[87.03,21.583],[86.961,21.559],[86.887,21.626],[86.88,21.574],[86.812,21.607],[86.652,21.579],[86.489,21.381],[86.361,21.301],[86.374,21.232],[86.417,21.21],[86.459,21.236],[86.462,21.16],[86.511,21.138],[86.558,21.158],[86.649,21.064],[86.672,21.164],[86.776,21.172],[86.774,21.229],[86.848,21.24],[86.956,21.384],[87.119,21.515],[87.244,21.55],[87.393,21.544],[87.338,21.577],[87.404,21.558],[87.487,21.611],[87.443,21.77]]]}},{"type":"Feature","properties":{"code":"WB-S24","name":"South 24 Parganas","state":"West Bengal","source":"geoBoundaries gbOpen ADM2 (CC-BY 4.0)"},"geometry":{"type":"Polygon","coordinates":[[[88.274,22.556],[88.125,22.476],[88.133,22.414],[88.076,22.363],[88.098,22.303],[88.063,22.206],[88.182,22.179],[88.212,22.112],[88.081,21.966],[88.012,21.746],[87.953,21.656],[87.945,21.562],[88.072,21.507],[88.159,21.52],[88.201,21.619],[88.25,21.562],[88.29,21.56],[88.366,21.691],[88.401,21.608],[88.522,21.631],[88.481,21.553],[88.519,21.541],[88.594,21.594],[88.733,21.577],[88.81,21.607],[88.843,21.558],[88.892,21.555],[88.843,21.6],[88.872,21.654],[89.002,21.604],[89.121,21.661],[89.031,21.787],[89.026,21.908],[89.083,21.952],[89.044,22.101],[89.098,22.155],[89.07,22.15],[89.057,22.207],[88.98,22.202],[88.942,22.261],[88.907,22.246],[88.863,22.28],[88.828,22.256],[88.83,22.365],[88.782,22.361],[88.712,22.423],[88.6,22.605],[88.559,22.614],[88.52,22.537],[88.463,22.564],[88.446,22.501],[88.402,22.559],[88.362,22.499],[88.291,22.518],[88.274,22.556]]]}},{"type":"Feature","properties":{"code":"AP-NEL","name":"Nellore","state":"Andhra Pradesh","source":"geoBoundaries gbOpen ADM2 (CC-BY 4.0)"},"geometry":{"type":"Polygon","coordinates":[[[79.077,15.056],[79.073,14.963],[79.177,14.715],[79.18,14.623],[79.237,14.589],[79.296,14.481],[79.347,14.465],[79.328,14.431],[79.418,14.287],[79.453,14.104],[79.445,13.89],[79.589,13.92],[79.616,13.85],[79.671,13.836],[79.682,13.924],[79.727,13.906],[79.763,13.809],[79.832,13.78],[79.881,13.814],[79.853,13.768],[79.872,13.709],[79.959,13.708],[79.969,13.653],[80.047,13.576],[80.042,13.538],[80.086,13.548],[80.081,13.492],[80.127,13.508],[80.242,13.469],[80.268,13.563],[80.234,13.656],[80.253,13.781],[80.147,14.043],[80.127,14.173],[80.195,14.577],[80.099,14.775],[80.052,15.02],[80.001,14.988],[79.948,15.021],[79.858,14.955],[79.782,14.977],[79.79,15.062],[79.744,15.033],[79.553,15.024],[79.422,15.057],[79.353,15.112],[79.333,15.09],[79.325,15.118],[79.299,15.092],[79.124,15.104],[79.077,15.056]]]}},{"type":"Feature","properties":{"code":"TN-CUD","name":"Cuddalore","state":"Tamil Nadu","source":"geoBoundaries gbOpen ADM2 (CC-BY 4.0)"},"geometry":{"type":"Polygon","coordinates":[[[79.708,11.889],[79.681,11.796],[79.456,11.871],[79.485,11.808],[79.444,11.809],[79.442,11.764],[79.466,11.768],[79.43,11.731],[79.445,11.665],[79.383,11.68],[79.311,11.634],[79.25,11.651],[79.185,11.588],[79.072,11.621],[79.079,11.599],[79.005,11.567],[78.931,11.566],[78.906,11.504],[78.876,11.506],[78.966,11.402],[79.177,11.375],[79.234,11.393],[79.246,11.371],[79.299,11.382],[79.297,11.413],[79.37,11.42],[79.395,11.356],[79.501,11.312],[79.514,11.227],[79.46,11.15],[79.649,11.251],[79.653,11.301],[79.805,11.384],[79.758,11.579],[79.797,11.789],[79.717,11.795],[79.737,11.844],[79.809,11.837],[79.766,11.84],[79.762,11.876],[79.719,11.856],[79.708,11.889]]]}},{"type":"Feature","properties":{"code":"MH-MSU","name":"Mumbai Suburban","state":"Maharashtra","source":"geoBoundaries gbOpen ADM2 (CC-BY 4.0)"},"geometry":{"type":"Polygon","coordinates":[[[72.785,19.263],[72.819,19.033],[72.87,19.052],[72.91,18.991],[72.973,19.06],[72.984,19.157],[72.909,19.247],[72.785,19.263]]]}},{"type":"Feature","properties":{"code":"TN-CHN","name":"Chennai","state":"Tamil Nadu","source":"geoBoundaries gbOpen ADM2 (CC-BY 4.0)"},"geometry":{"type":"Polygon","coordinates":[[[80.19,13.026],[80.217,12.969],[80.267,12.973],[80.304,13.142],[80.203,13.127],[80.19,13.026]]]}}]}